CCSDS_OMM_VERS = 2.0
CREATION_DATE  = 
ORIGINATOR     = 

OBJECT_NAME    = ARIANE 40 R/B
OBJECT_ID      = 1990-005H
CENTER_NAME    = EARTH
REF_FRAME      = TEME
TIME_SYSTEM    = UTC
MEAN_ELEMENT_THEORY = SGP/SGP4

EPOCH          = 2025-11-28T18:29:52.260000
MEAN_MOTION    = 14.39781911
ECCENTRICITY   = .001089
INCLINATION    = 98.3263
RA_OF_ASC_NODE = 31.3423
ARG_OF_PERICENTER = 143.9233
MEAN_ANOMALY   = 216.2693

EPHEMERIS_TYPE = 0
CLASSIFICATION_TYPE = U
NORAD_CAT_ID   = 20443
ELEMENT_SET_NO = 999
REV_AT_EPOCH   = 87828
BSTAR          = .12065E-3
MEAN_MOTION_DOT = .336E-5
MEAN_MOTION_DDOT = 0

CCSDS_OMM_VERS = 2.0
CREATION_DATE  = 
ORIGINATOR     = 

OBJECT_NAME    = DELTA 2 R/B(1)
OBJECT_ID      = 1990-008B
CENTER_NAME    = EARTH
REF_FRAME      = TEME
TIME_SYSTEM    = UTC
MEAN_ELEMENT_THEORY = SGP/SGP4

EPOCH          = 2025-11-28T11:09:48.066624
MEAN_MOTION    = 15.43764727
ECCENTRICITY   = .01134723
INCLINATION    = 35.6050
RA_OF_ASC_NODE = 112.6067
ARG_OF_PERICENTER = 47.8588
MEAN_ANOMALY   = 313.1721

EPHEMERIS_TYPE = 0
CLASSIFICATION_TYPE = U
NORAD_CAT_ID   = 20453
ELEMENT_SET_NO = 999
REV_AT_EPOCH   = 91042
BSTAR          = .66801085E-3
MEAN_MOTION_DOT = .39835E-3
MEAN_MOTION_DDOT = 0

CCSDS_OMM_VERS = 2.0
CREATION_DATE  = 
ORIGINATOR     = 

OBJECT_NAME    = COSMOS 2058
OBJECT_ID      = 1990-010A
CENTER_NAME    = EARTH
REF_FRAME      = TEME
TIME_SYSTEM    = UTC
MEAN_ELEMENT_THEORY = SGP/SGP4

EPOCH          = 2025-11-28T15:30:58.702464
MEAN_MOTION    = 15.10278557
ECCENTRICITY   = .00090013
INCLINATION    = 82.4630
RA_OF_ASC_NODE = 146.8951
ARG_OF_PERICENTER = 331.4269
MEAN_ANOMALY   = 28.6466

EPHEMERIS_TYPE = 0
CLASSIFICATION_TYPE = U
NORAD_CAT_ID   = 20465
ELEMENT_SET_NO = 999
REV_AT_EPOCH   = 92698
BSTAR          = .26698477E-3
MEAN_MOTION_DOT = .4401E-4
MEAN_MOTION_DDOT = 0

CCSDS_OMM_VERS = 2.0
CREATION_DATE  = 
ORIGINATOR     = 

OBJECT_NAME    = SL-14 R/B
OBJECT_ID      = 1990-010B
CENTER_NAME    = EARTH
REF_FRAME      = TEME
TIME_SYSTEM    = UTC
MEAN_ELEMENT_THEORY = SGP/SGP4

EPOCH          = 2025-11-28T13:56:04.550208
MEAN_MOTION    = 14.83450944
ECCENTRICITY   = .0018266
INCLINATION    = 82.5028
RA_OF_ASC_NODE = 2.3456
ARG_OF_PERICENTER = 273.3610
MEAN_ANOMALY   = 86.5515

EPHEMERIS_TYPE = 0
CLASSIFICATION_TYPE = U
NORAD_CAT_ID   = 20466
ELEMENT_SET_NO = 999
REV_AT_EPOCH   = 91349
BSTAR          = .54965537E-4
MEAN_MOTION_DOT = .476E-5
MEAN_MOTION_DDOT = 0

CCSDS_OMM_VERS = 2.0
CREATION_DATE  = 
ORIGINATOR     = 

OBJECT_NAME    = SL-14 R/B
OBJECT_ID      = 1990-018B
CENTER_NAME    = EARTH
REF_FRAME      = TEME
TIME_SYSTEM    = UTC
MEAN_ELEMENT_THEORY = SGP/SGP4

EPOCH          = 2025-11-28T12:01:48.049248
MEAN_MOTION    = 14.82023648
ECCENTRICITY   = .00178852
INCLINATION    = 82.5199
RA_OF_ASC_NODE = 317.6743
ARG_OF_PERICENTER = 67.2344
MEAN_ANOMALY   = 293.0758

EPHEMERIS_TYPE = 0
CLASSIFICATION_TYPE = U
NORAD_CAT_ID   = 20511
ELEMENT_SET_NO = 999
REV_AT_EPOCH   = 90759
BSTAR          = .65247802E-4
MEAN_MOTION_DOT = .543E-5
MEAN_MOTION_DDOT = 0

CCSDS_OMM_VERS = 2.0
CREATION_DATE  = 
ORIGINATOR     = 

OBJECT_NAME    = HST
OBJECT_ID      = 1990-037B
CENTER_NAME    = EARTH
REF_FRAME      = TEME
TIME_SYSTEM    = UTC
MEAN_ELEMENT_THEORY = SGP/SGP4

EPOCH          = 2025-11-28T19:32:19.402944
MEAN_MOTION    = 15.27755767
ECCENTRICITY   = .0002107
INCLINATION    = 28.4701
RA_OF_ASC_NODE = 7.2506
ARG_OF_PERICENTER = 90.1002
MEAN_ANOMALY   = 269.9835

EPHEMERIS_TYPE = 0
CLASSIFICATION_TYPE = U
NORAD_CAT_ID   = 20580
ELEMENT_SET_NO = 999
REV_AT_EPOCH   = 75786
BSTAR          = .26733E-3
MEAN_MOTION_DOT = .7684E-4
MEAN_MOTION_DDOT = 0

CCSDS_OMM_VERS = 2.0
CREATION_DATE  = 
ORIGINATOR     = 

OBJECT_NAME    = SL-16 R/B
OBJECT_ID      = 1990-046B
CENTER_NAME    = EARTH
REF_FRAME      = TEME
TIME_SYSTEM    = UTC
MEAN_ELEMENT_THEORY = SGP/SGP4

EPOCH          = 2025-11-28T14:34:40.247328
MEAN_MOTION    = 14.14994214
ECCENTRICITY   = .00121365
INCLINATION    = 70.9967
RA_OF_ASC_NODE = 150.2004
ARG_OF_PERICENTER = 99.7956
MEAN_ANOMALY   = 260.4537

EPHEMERIS_TYPE = 0
CLASSIFICATION_TYPE = U
NORAD_CAT_ID   = 20625
ELEMENT_SET_NO = 999
REV_AT_EPOCH   = 83409
BSTAR          = .20381179E-3
MEAN_MOTION_DOT = .347E-5
MEAN_MOTION_DDOT = 0

CCSDS_OMM_VERS = 2.0
CREATION_DATE  = 
ORIGINATOR     = 

OBJECT_NAME    = COSMOS 2084
OBJECT_ID      = 1990-055A
CENTER_NAME    = EARTH
REF_FRAME      = TEME
TIME_SYSTEM    = UTC
MEAN_ELEMENT_THEORY = SGP/SGP4

EPOCH          = 2025-11-28T09:57:47.745216
MEAN_MOTION    = 15.04881192
ECCENTRICITY   = .00339129
INCLINATION    = 62.7912
RA_OF_ASC_NODE = 320.7975
ARG_OF_PERICENTER = 172.9285
MEAN_ANOMALY   = 187.2301

EPHEMERIS_TYPE = 0
CLASSIFICATION_TYPE = U
NORAD_CAT_ID   = 20663
ELEMENT_SET_NO = 999
REV_AT_EPOCH   = 92107
BSTAR          = .22373457E-3
MEAN_MOTION_DOT = .3014E-4
MEAN_MOTION_DDOT = 0

CCSDS_OMM_VERS = 2.0
CREATION_DATE  = 
ORIGINATOR     = 

OBJECT_NAME    = SL-6 R/B(2)
OBJECT_ID      = 1990-055D
CENTER_NAME    = EARTH
REF_FRAME      = TEME
TIME_SYSTEM    = UTC
MEAN_ELEMENT_THEORY = SGP/SGP4

EPOCH          = 2025-11-28T19:06:09.893376
MEAN_MOTION    = 15.02977841
ECCENTRICITY   = .0011542
INCLINATION    = 62.7829
RA_OF_ASC_NODE = 236.7902
ARG_OF_PERICENTER = 297.6404
MEAN_ANOMALY   = 62.3523

EPHEMERIS_TYPE = 0
CLASSIFICATION_TYPE = U
NORAD_CAT_ID   = 20666
ELEMENT_SET_NO = 999
REV_AT_EPOCH   = 92302
BSTAR          = .17811E-3
MEAN_MOTION_DOT = .2213E-4
MEAN_MOTION_DDOT = 0

CCSDS_OMM_VERS = 2.0
CREATION_DATE  = 
ORIGINATOR     = 

OBJECT_NAME    = SL-8 R/B
OBJECT_ID      = 1990-078B
CENTER_NAME    = EARTH
REF_FRAME      = TEME
TIME_SYSTEM    = UTC
MEAN_ELEMENT_THEORY = SGP/SGP4

EPOCH          = 2025-11-28T18:55:00.274368
MEAN_MOTION    = 14.85062681
ECCENTRICITY   = .037652
INCLINATION    = 82.9055
RA_OF_ASC_NODE = 341.7909
ARG_OF_PERICENTER = 352.7575
MEAN_ANOMALY   = 6.8283

EPHEMERIS_TYPE = 0
CLASSIFICATION_TYPE = U
NORAD_CAT_ID   = 20775
ELEMENT_SET_NO = 999
REV_AT_EPOCH   = 79430
BSTAR          = .82105E-3
MEAN_MOTION_DOT = .26507E-3
MEAN_MOTION_DDOT = 0

CCSDS_OMM_VERS = 2.0
CREATION_DATE  = 
ORIGINATOR     = 

OBJECT_NAME    = SL-8 R/B
OBJECT_ID      = 1991-006B
CENTER_NAME    = EARTH
REF_FRAME      = TEME
TIME_SYSTEM    = UTC
MEAN_ELEMENT_THEORY = SGP/SGP4

EPOCH          = 2025-11-28T12:52:37.220160
MEAN_MOTION    = 13.77487644
ECCENTRICITY   = .00217393
INCLINATION    = 82.9429
RA_OF_ASC_NODE = 245.2767
ARG_OF_PERICENTER = 321.7582
MEAN_ANOMALY   = 211.1989

EPHEMERIS_TYPE = 0
CLASSIFICATION_TYPE = U
NORAD_CAT_ID   = 21088
ELEMENT_SET_NO = 999
REV_AT_EPOCH   = 75014
BSTAR          = .81607735E-4
MEAN_MOTION_DOT = .96E-6
MEAN_MOTION_DDOT = 0

CCSDS_OMM_VERS = 2.0
CREATION_DATE  = 
ORIGINATOR     = 

OBJECT_NAME    = OKEAN-3
OBJECT_ID      = 1991-039A
CENTER_NAME    = EARTH
REF_FRAME      = TEME
TIME_SYSTEM    = UTC
MEAN_ELEMENT_THEORY = SGP/SGP4

EPOCH          = 2025-11-28T18:39:43.726752
MEAN_MOTION    = 15.03978037
ECCENTRICITY   = .0013618
INCLINATION    = 82.5178
RA_OF_ASC_NODE = 74.5588
ARG_OF_PERICENTER = 317.1109
MEAN_ANOMALY   = 42.9054

EPHEMERIS_TYPE = 0
CLASSIFICATION_TYPE = U
NORAD_CAT_ID   = 21397
ELEMENT_SET_NO = 999
REV_AT_EPOCH   = 84986
BSTAR          = .27892E-3
MEAN_MOTION_DOT = .3884E-4
MEAN_MOTION_DDOT = 0

