ARIANE 40 R/B           
1 20443U 90005H   25332.77074375  .00000336  00000+0  12065-3 0  9990
2 20443  98.3263  31.3423 0010890 143.9233 216.2693 14.39781911878281
DELTA 2 R/B(1)          
1 20453U 90008B   25332.46513966  .00039835  00000+0  66801-3 0  9997
2 20453  35.6050 112.6067 0113472  47.8588 313.1721 15.43764727910426
COSMOS 2058             
1 20465U 90010A   25332.64651276  .00004401  00000+0  26698-3 0  9991
2 20465  82.4630 146.8951 0009001 331.4269  28.6466 15.10278557926981
SL-14 R/B               
1 20466U 90010B   25332.58060822  .00000476  00000+0  54966-4 0  9994
2 20466  82.5028   2.3456 0018266 273.3610  86.5515 14.83450944913498
SL-14 R/B               
1 20511U 90018B   25332.50125057  .00000543  00000+0  65248-4 0  9997
2 20511  82.5199 317.6743 0017885  67.2344 293.0758 14.82023648907593
HST                     
1 20580U 90037B   25332.81411346  .00007684  00000+0  26733-3 0  9995
2 20580  28.4701   7.2506 0002107  90.1002 269.9835 15.27755767757868
SL-16 R/B               
1 20625U 90046B   25332.60741027  .00000347  00000+0  20381-3 0  9996
2 20625  70.9967 150.2004 0012136  99.7956 260.4537 14.14994214834095
COSMOS 2084             
1 20663U 90055A   25332.41513594  .00003014  00000+0  22373-3 0  9990
2 20663  62.7912 320.7975 0033912 172.9285 187.2301 15.04881192921071
SL-6 R/B(2)             
1 20666U 90055D   25332.79594784  .00002213  00000+0  17811-3 0  9995
2 20666  62.7829 236.7902 0011542 297.6404  62.3523 15.02977841923021
SL-8 R/B                
1 20775U 90078B   25332.78819762  .00026507  00000+0  82105-3 0  9996
2 20775  82.9055 341.7909 0376520 352.7575   6.8283 14.85062681794303
SL-8 R/B                
1 21088U 91006B   25332.53654190  .00000096  00000+0  81608-4 0  9994
2 21088  82.9429 245.2767 0021739 321.7582 211.1989 13.77487644750147
OKEAN-3                 
1 21397U 91039A   25332.77758943  .00003884  00000+0  27892-3 0  9992
2 21397  82.5178  74.5588 0013618 317.1109  42.9054 15.03978037849865
